{
  "type": "FeatureCollection",
  "features": [
    {
      "type": "Feature",
      "geometry": {
        "type": "Point",
        "coordinates": [
          -48.1583089,
          -21.7251916
        ]
      },
      "properties": {
        "id": "SUS-034",
        "name": "Posto de Saúde Municipal",
        "type": "Posto / Centro de Saúde Público",
        "lat": -21.7251916,
        "lon": -48.1583089,
        "address": "",
        "suburb": "Araraquara",
        "cnes": null,
        "network": "Rede Pública SUS / Filantrópico",
        "surface_temp_300m": 36.4398,
        "ndvi_300m": 0.253,
        "climate_data_coverage_pct": 100.0,
        "census_population_300m": 2136.1714,
        "census_income_median_300m": 1392.3951,
        "census_share_children_300m": 0.2001,
        "census_share_elderly_300m": 0.0622,
        "census_crowding_300m": null,
        "vulnerability_score_300m": 3.67,
        "social_data_coverage_pct": 100.0,
        "vulnerability_data_quality": "censo_2022",
        "flood_zone_level": "Baixa",
        "flood_zone_process": "Inundação",
        "flood_zone_distance_m": 768.4,
        "flood_zone_in_buffer": null,
        "flood_point_nearest_m": 2913.5,
        "flood_point_nearest_name": "Rua Maurício Galli",
        "flood_point_nearest_phenomenon": "Inundação / Assoreamento",
        "climate_data_quality": "urbverde_2024",
        "heat_component": 0.9586,
        "vegetation_component": 0.9536,
        "social_component": 1.0,
        "heat_component_0_100": 95.9,
        "vegetation_component_0_100": 95.4,
        "social_component_0_100": 100.0,
        "iecs_score": 97.0,
        "risk_level": "Crítico (Altíssimo Risco)",
        "ranking": 1.0,
        "vulnerability_source": "IBGE Censo 2022 — índice social-sanitário composto do projeto"
      }
    },
    {
      "type": "Feature",
      "geometry": {
        "type": "Point",
        "coordinates": [
          -48.1579375,
          -21.7246497
        ]
      },
      "properties": {
        "id": "SUS-015",
        "name": "UPA Valle Verde",
        "type": "UPA / Pronto Atendimento",
        "lat": -21.7246497,
        "lon": -48.1579375,
        "address": "Rua Henrique João Baptista Crisci",
        "suburb": "Valle Verde",
        "cnes": null,
        "network": "Rede Pública SUS / Filantrópico",
        "surface_temp_300m": 36.4638,
        "ndvi_300m": 0.2518,
        "climate_data_coverage_pct": 100.0,
        "census_population_300m": 2272.0168,
        "census_income_median_300m": 1401.7538,
        "census_share_children_300m": 0.1995,
        "census_share_elderly_300m": 0.0599,
        "census_crowding_300m": null,
        "vulnerability_score_300m": 3.66,
        "social_data_coverage_pct": 100.0,
        "vulnerability_data_quality": "censo_2022",
        "flood_zone_level": "Baixa",
        "flood_zone_process": "Inundação",
        "flood_zone_distance_m": 712.7,
        "flood_zone_in_buffer": null,
        "flood_point_nearest_m": 2979.0,
        "flood_point_nearest_name": "Rua Maurício Galli",
        "flood_point_nearest_phenomenon": "Inundação / Assoreamento",
        "climate_data_quality": "urbverde_2024",
        "heat_component": 0.9628,
        "vegetation_component": 0.9583,
        "social_component": 0.9848,
        "heat_component_0_100": 96.3,
        "vegetation_component_0_100": 95.8,
        "social_component_0_100": 98.5,
        "iecs_score": 96.8,
        "risk_level": "Crítico (Altíssimo Risco)",
        "ranking": 2.0,
        "vulnerability_source": "IBGE Censo 2022 — índice social-sanitário composto do projeto"
      }
    },
    {
      "type": "Feature",
      "geometry": {
        "type": "Point",
        "coordinates": [
          -48.1585244,
          -21.7251579
        ]
      },
      "properties": {
        "id": "SUS-023",
        "name": "PSF",
        "type": "USF (Saúde da Família)",
        "lat": -21.7251579,
        "lon": -48.1585244,
        "address": "",
        "suburb": "Araraquara",
        "cnes": null,
        "network": "Rede Pública SUS / Filantrópico",
        "surface_temp_300m": 36.4239,
        "ndvi_300m": 0.2538,
        "climate_data_coverage_pct": 100.0,
        "census_population_300m": 2103.8102,
        "census_income_median_300m": 1399.5353,
        "census_share_children_300m": 0.2007,
        "census_share_elderly_300m": 0.0624,
        "census_crowding_300m": null,
        "vulnerability_score_300m": 3.67,
        "social_data_coverage_pct": 100.0,
        "vulnerability_data_quality": "censo_2022",
        "flood_zone_level": "Baixa",
        "flood_zone_process": "Inundação",
        "flood_zone_distance_m": 762.3,
        "flood_zone_in_buffer": null,
        "flood_point_nearest_m": 2913.8,
        "flood_point_nearest_name": "Rua Maurício Galli",
        "flood_point_nearest_phenomenon": "Inundação / Assoreamento",
        "climate_data_quality": "urbverde_2024",
        "heat_component": 0.9558,
        "vegetation_component": 0.9504,
        "social_component": 1.0,
        "heat_component_0_100": 95.6,
        "vegetation_component_0_100": 95.0,
        "social_component_0_100": 100.0,
        "iecs_score": 96.8,
        "risk_level": "Crítico (Altíssimo Risco)",
        "ranking": 3.0,
        "vulnerability_source": "IBGE Censo 2022 — índice social-sanitário composto do projeto"
      }
    },
    {
      "type": "Feature",
      "geometry": {
        "type": "Point",
        "coordinates": [
          -48.151231,
          -21.739931
        ]
      },
      "properties": {
        "id": "SUS-045",
        "name": "CMS Jardim Roberto Selmi Dei I — Dr. Ruy de Toledo",
        "type": "UBS / CMS (Unidade Básica)",
        "lat": -21.739931,
        "lon": -48.151231,
        "address": null,
        "suburb": "Jardim Roberto Selmi Dei I",
        "cnes": null,
        "network": null,
        "surface_temp_300m": 36.5243,
        "ndvi_300m": 0.2491,
        "climate_data_coverage_pct": 100.0,
        "census_population_300m": 979.8936,
        "census_income_median_300m": 1576.196,
        "census_share_children_300m": 0.0981,
        "census_share_elderly_300m": 0.2735,
        "census_crowding_300m": null,
        "vulnerability_score_300m": 3.61,
        "social_data_coverage_pct": 100.0,
        "vulnerability_data_quality": "censo_2022",
        "flood_zone_level": "Baixa",
        "flood_zone_process": "Inundação",
        "flood_zone_distance_m": 69.0,
        "flood_zone_in_buffer": "Baixa",
        "flood_point_nearest_m": 1720.0,
        "flood_point_nearest_name": "Rua Maurício Galli",
        "flood_point_nearest_phenomenon": "Inundação / Assoreamento",
        "climate_data_quality": "urbverde_2024",
        "heat_component": 0.9735,
        "vegetation_component": 0.9689,
        "social_component": 0.9091,
        "heat_component_0_100": 97.3,
        "vegetation_component_0_100": 96.9,
        "social_component_0_100": 90.9,
        "iecs_score": 95.3,
        "risk_level": "Crítico (Altíssimo Risco)",
        "ranking": 4.0,
        "vulnerability_source": "IBGE Censo 2022 — índice social-sanitário composto do projeto"
      }
    },
    {
      "type": "Feature",
      "geometry": {
        "type": "Point",
        "coordinates": [
          -48.1475016,
          -21.727972
        ]
      },
      "properties": {
        "id": "SUS-016",
        "name": "Unidade Básica de Saúde Doutor Herculano Graeff",
        "type": "UBS / CMS (Unidade Básica)",
        "lat": -21.727972,
        "lon": -48.1475016,
        "address": "Avenida Olímpio Bolzan",
        "suburb": "Jardim Roberto Selmi Dei IV",
        "cnes": null,
        "network": "Rede Pública SUS / Filantrópico",
        "surface_temp_300m": 36.6144,
        "ndvi_300m": 0.2493,
        "climate_data_coverage_pct": 100.0,
        "census_population_300m": 697.4044,
        "census_income_median_300m": 1937.2901,
        "census_share_children_300m": 0.0986,
        "census_share_elderly_300m": 0.2151,
        "census_crowding_300m": null,
        "vulnerability_score_300m": 3.46,
        "social_data_coverage_pct": 100.0,
        "vulnerability_data_quality": "censo_2022",
        "flood_zone_level": "Baixa",
        "flood_zone_process": "Inundação",
        "flood_zone_distance_m": 161.8,
        "flood_zone_in_buffer": "Baixa",
        "flood_point_nearest_m": 2908.6,
        "flood_point_nearest_name": "Av. Manoel de Abreu — Jardim Zavanella",
        "flood_point_nearest_phenomenon": "Alagamento",
        "climate_data_quality": "urbverde_2024",
        "heat_component": 0.9894,
        "vegetation_component": 0.9683,
        "social_component": 0.6818,
        "heat_component_0_100": 98.9,
        "vegetation_component_0_100": 96.8,
        "social_component_0_100": 68.2,
        "iecs_score": 89.2,
        "risk_level": "Crítico (Altíssimo Risco)",
        "ranking": 5.0,
        "vulnerability_source": "IBGE Censo 2022 — índice social-sanitário composto do projeto"
      }
    },
    {
      "type": "Feature",
      "geometry": {
        "type": "Point",
        "coordinates": [
          -48.1563495,
          -21.7362868
        ]
      },
      "properties": {
        "id": "SUS-037",
        "name": "USF Roxo",
        "type": "USF (Saúde da Família)",
        "lat": -21.7362868,
        "lon": -48.1563495,
        "address": "",
        "suburb": "Araraquara",
        "cnes": null,
        "network": "Rede Pública SUS / Filantrópico",
        "surface_temp_300m": 36.6749,
        "ndvi_300m": 0.2413,
        "climate_data_coverage_pct": 100.0,
        "census_population_300m": 1879.1803,
        "census_income_median_300m": 2317.5376,
        "census_share_children_300m": 0.1486,
        "census_share_elderly_300m": 0.0979,
        "census_crowding_300m": null,
        "vulnerability_score_300m": 3.4,
        "social_data_coverage_pct": 100.0,
        "vulnerability_data_quality": "censo_2022",
        "flood_zone_level": "Baixa",
        "flood_zone_process": "Inundação",
        "flood_zone_distance_m": 251.4,
        "flood_zone_in_buffer": "Baixa",
        "flood_point_nearest_m": 1774.5,
        "flood_point_nearest_name": "Rua Maurício Galli",
        "flood_point_nearest_phenomenon": "Inundação / Assoreamento",
        "climate_data_quality": "urbverde_2024",
        "heat_component": 1.0,
        "vegetation_component": 1.0,
        "social_component": 0.5909,
        "heat_component_0_100": 100.0,
        "vegetation_component_0_100": 100.0,
        "social_component_0_100": 59.1,
        "iecs_score": 87.7,
        "risk_level": "Crítico (Altíssimo Risco)",
        "ranking": 6.0,
        "vulnerability_source": "IBGE Censo 2022 — índice social-sanitário composto do projeto"
      }
    },
    {
      "type": "Feature",
      "geometry": {
        "type": "Point",
        "coordinates": [
          -48.1611068,
          -21.7739773
        ]
      },
      "properties": {
        "id": "SUS-018",
        "name": "CMS Jardim Paulistano “Dr. Genaro Granata”",
        "type": "UBS / CMS (Unidade Básica)",
        "lat": -21.7739773,
        "lon": -48.1611068,
        "address": "Avenida Jorge Haddad",
        "suburb": "Jd. Paulistano",
        "cnes": null,
        "network": "Rede Pública SUS / Filantrópico",
        "surface_temp_300m": 35.6,
        "ndvi_300m": 0.29,
        "climate_data_coverage_pct": 100.0,
        "census_population_300m": 1392.0997,
        "census_income_median_300m": 2369.9166,
        "census_share_children_300m": 0.0808,
        "census_share_elderly_300m": 0.3109,
        "census_crowding_300m": null,
        "vulnerability_score_300m": 3.5,
        "social_data_coverage_pct": 100.0,
        "vulnerability_data_quality": "censo_2022",
        "flood_zone_level": "Baixa",
        "flood_zone_process": "Inundação",
        "flood_zone_distance_m": 1236.0,
        "flood_zone_in_buffer": null,
        "flood_point_nearest_m": 1102.4,
        "flood_point_nearest_name": "Rua Napoleão Selmi Dei / Rua Henrique Lupo — Vila Harmonia",
        "flood_point_nearest_phenomenon": "Inundação",
        "climate_data_quality": "urbverde_2024",
        "heat_component": 0.8106,
        "vegetation_component": 0.8075,
        "social_component": 0.7424,
        "heat_component_0_100": 81.1,
        "vegetation_component_0_100": 80.7,
        "social_component_0_100": 74.2,
        "iecs_score": 78.9,
        "risk_level": "Crítico (Altíssimo Risco)",
        "ranking": 7.0,
        "vulnerability_source": "IBGE Censo 2022 — índice social-sanitário composto do projeto"
      }
    },
    {
      "type": "Feature",
      "geometry": {
        "type": "Point",
        "coordinates": [
          -48.1411343,
          -21.7713831
        ]
      },
      "properties": {
        "id": "SUS-039",
        "name": "USF Vila Biagioni",
        "type": "USF (Saúde da Família)",
        "lat": -21.7713831,
        "lon": -48.1411343,
        "address": "",
        "suburb": "Araraquara",
        "cnes": null,
        "network": "Rede Pública SUS / Filantrópico",
        "surface_temp_300m": 35.2758,
        "ndvi_300m": 0.3062,
        "climate_data_coverage_pct": 100.0,
        "census_population_300m": 1710.7607,
        "census_income_median_300m": 1892.1755,
        "census_share_children_300m": 0.1012,
        "census_share_elderly_300m": 0.2266,
        "census_crowding_300m": null,
        "vulnerability_score_300m": 3.5,
        "social_data_coverage_pct": 100.0,
        "vulnerability_data_quality": "censo_2022",
        "flood_zone_level": "Baixa",
        "flood_zone_process": "Inundação",
        "flood_zone_distance_m": 988.5,
        "flood_zone_in_buffer": null,
        "flood_point_nearest_m": 274.3,
        "flood_point_nearest_name": "Av. Francisco Vaz Filho — Jardim América",
        "flood_point_nearest_phenomenon": "Alagamento",
        "climate_data_quality": "urbverde_2024",
        "heat_component": 0.7535,
        "vegetation_component": 0.7435,
        "social_component": 0.7424,
        "heat_component_0_100": 75.3,
        "vegetation_component_0_100": 74.3,
        "social_component_0_100": 74.2,
        "iecs_score": 74.8,
        "risk_level": "Alto",
        "ranking": 8.0,
        "vulnerability_source": "IBGE Censo 2022 — índice social-sanitário composto do projeto"
      }
    },
    {
      "type": "Feature",
      "geometry": {
        "type": "Point",
        "coordinates": [
          -48.1637525,
          -21.7832439
        ]
      },
      "properties": {
        "id": "SUS-024",
        "name": "Centro Municipal de Saúde \"João Vitor Nascimento Maurício\"",
        "type": "UBS / CMS (Unidade Básica)",
        "lat": -21.7832439,
        "lon": -48.1637525,
        "address": "",
        "suburb": "Araraquara",
        "cnes": null,
        "network": "Rede Pública SUS / Filantrópico",
        "surface_temp_300m": 35.3,
        "ndvi_300m": 0.31,
        "climate_data_coverage_pct": 100.0,
        "census_population_300m": 1035.9439,
        "census_income_median_300m": 2311.9815,
        "census_share_children_300m": 0.0647,
        "census_share_elderly_300m": 0.3384,
        "census_crowding_300m": null,
        "vulnerability_score_300m": 3.5,
        "social_data_coverage_pct": 100.0,
        "vulnerability_data_quality": "censo_2022",
        "flood_zone_level": "Baixa",
        "flood_zone_process": "Inundação",
        "flood_zone_distance_m": 803.6,
        "flood_zone_in_buffer": null,
        "flood_point_nearest_m": 1585.4,
        "flood_point_nearest_name": "Rua Napoleão Selmi Dei / Rua Henrique Lupo — Vila Harmonia",
        "flood_point_nearest_phenomenon": "Inundação",
        "climate_data_quality": "urbverde_2024",
        "heat_component": 0.7577,
        "vegetation_component": 0.7285,
        "social_component": 0.7424,
        "heat_component_0_100": 75.8,
        "vegetation_component_0_100": 72.9,
        "social_component_0_100": 74.2,
        "iecs_score": 74.6,
        "risk_level": "Alto",
        "ranking": 9.0,
        "vulnerability_source": "IBGE Censo 2022 — índice social-sanitário composto do projeto"
      }
    },
    {
      "type": "Feature",
      "geometry": {
        "type": "Point",
        "coordinates": [
          -48.1582983,
          -21.7683425
        ]
      },
      "properties": {
        "id": "SUS-040",
        "name": "USF Brasília Prof. Dr. Edmundo Juarez",
        "type": "USF (Saúde da Família)",
        "lat": -21.7683425,
        "lon": -48.1582983,
        "address": "",
        "suburb": "Araraquara",
        "cnes": null,
        "network": "Rede Pública SUS / Filantrópico",
        "surface_temp_300m": 35.7728,
        "ndvi_300m": 0.2814,
        "climate_data_coverage_pct": 100.0,
        "census_population_300m": 1121.3105,
        "census_income_median_300m": 2723.9149,
        "census_share_children_300m": 0.0811,
        "census_share_elderly_300m": 0.2495,
        "census_crowding_300m": null,
        "vulnerability_score_300m": 3.34,
        "social_data_coverage_pct": 100.0,
        "vulnerability_data_quality": "censo_2022",
        "flood_zone_level": "Baixa",
        "flood_zone_process": "Inundação",
        "flood_zone_distance_m": 919.5,
        "flood_zone_in_buffer": null,
        "flood_point_nearest_m": 1358.7,
        "flood_point_nearest_name": "Rua Napoleão Selmi Dei / Rua Henrique Lupo — Vila Harmonia",
        "flood_point_nearest_phenomenon": "Inundação",
        "climate_data_quality": "urbverde_2024",
        "heat_component": 0.841,
        "vegetation_component": 0.8416,
        "social_component": 0.5,
        "heat_component_0_100": 84.1,
        "vegetation_component_0_100": 84.2,
        "social_component_0_100": 50.0,
        "iecs_score": 73.9,
        "risk_level": "Alto",
        "ranking": 10.0,
        "vulnerability_source": "IBGE Censo 2022 — índice social-sanitário composto do projeto"
      }
    },
    {
      "type": "Feature",
      "geometry": {
        "type": "Point",
        "coordinates": [
          -48.157116020171,
          -21.784106982771
        ]
      },
      "properties": {
        "id": "SUS-051",
        "name": "CEO \"Prof. Dr. Raphael Lia Rolfsen\"",
        "type": "Centro de Referência e Especialidades",
        "lat": -21.78410698,
        "lon": -48.15711602,
        "address": null,
        "suburb": "Vila Xavier",
        "cnes": null,
        "network": null,
        "surface_temp_300m": 35.1624,
        "ndvi_300m": 0.3119,
        "climate_data_coverage_pct": 100.0,
        "census_population_300m": 1455.2684,
        "census_income_median_300m": 2224.2042,
        "census_share_children_300m": 0.0758,
        "census_share_elderly_300m": 0.3113,
        "census_crowding_300m": null,
        "vulnerability_score_300m": 3.5,
        "social_data_coverage_pct": 100.0,
        "vulnerability_data_quality": "censo_2022",
        "flood_zone_level": "Baixa",
        "flood_zone_process": "Inundação",
        "flood_zone_distance_m": 711.2,
        "flood_zone_in_buffer": null,
        "flood_point_nearest_m": 1486.5,
        "flood_point_nearest_name": "Ponte da Nestlé — Av. Mário Zampieri — Parque Alvorada",
        "flood_point_nearest_phenomenon": "Alagamento",
        "climate_data_quality": "urbverde_2024",
        "heat_component": 0.7335,
        "vegetation_component": 0.7211,
        "social_component": 0.7424,
        "heat_component_0_100": 73.3,
        "vegetation_component_0_100": 72.1,
        "social_component_0_100": 74.2,
        "iecs_score": 73.3,
        "risk_level": "Alto",
        "ranking": 11.0,
        "vulnerability_source": "IBGE Censo 2022 — índice social-sanitário composto do projeto"
      }
    },
    {
      "type": "Feature",
      "geometry": {
        "type": "Point",
        "coordinates": [
          -48.1760506,
          -21.778303
        ]
      },
      "properties": {
        "id": "SUS-012",
        "name": "Hospital São Paulo",
        "type": "Hospital / Maternidade Público-Filantrópico",
        "lat": -21.778303,
        "lon": -48.1760506,
        "address": "Rua Major Carvalho Filho",
        "suburb": "Fonte",
        "cnes": null,
        "network": "Rede Pública SUS / Filantrópico",
        "surface_temp_300m": 35.1324,
        "ndvi_300m": 0.3159,
        "climate_data_coverage_pct": 100.0,
        "census_population_300m": 539.0272,
        "census_income_median_300m": 3089.3784,
        "census_share_children_300m": 0.0429,
        "census_share_elderly_300m": 0.4163,
        "census_crowding_300m": null,
        "vulnerability_score_300m": 3.5,
        "social_data_coverage_pct": 100.0,
        "vulnerability_data_quality": "censo_2022",
        "flood_zone_level": "Baixa",
        "flood_zone_process": "Inundação",
        "flood_zone_distance_m": 735.3,
        "flood_zone_in_buffer": null,
        "flood_point_nearest_m": 979.6,
        "flood_point_nearest_name": "Rua Napoleão Selmi Dei / Rua Henrique Lupo — Vila Harmonia",
        "flood_point_nearest_phenomenon": "Inundação",
        "climate_data_quality": "urbverde_2024",
        "heat_component": 0.7282,
        "vegetation_component": 0.7051,
        "social_component": 0.7424,
        "heat_component_0_100": 72.8,
        "vegetation_component_0_100": 70.5,
        "social_component_0_100": 74.2,
        "iecs_score": 72.7,
        "risk_level": "Alto",
        "ranking": 12.0,
        "vulnerability_source": "IBGE Censo 2022 — índice social-sanitário composto do projeto"
      }
    },
    {
      "type": "Feature",
      "geometry": {
        "type": "Point",
        "coordinates": [
          -48.1595272,
          -21.7859137
        ]
      },
      "properties": {
        "id": "SUS-010",
        "name": "Unidade de Pronto Atendimento Doutor Antônio Alonso Martinez",
        "type": "UPA / Pronto Atendimento",
        "lat": -21.7859137,
        "lon": -48.1595272,
        "address": "Rua José do Patrocínio",
        "suburb": "Vila Xavier",
        "cnes": null,
        "network": "Rede Pública SUS / Filantrópico",
        "surface_temp_300m": 35.0668,
        "ndvi_300m": 0.3177,
        "climate_data_coverage_pct": 100.0,
        "census_population_300m": 1353.4511,
        "census_income_median_300m": 2303.1285,
        "census_share_children_300m": 0.0636,
        "census_share_elderly_300m": 0.3467,
        "census_crowding_300m": null,
        "vulnerability_score_300m": 3.51,
        "social_data_coverage_pct": 100.0,
        "vulnerability_data_quality": "censo_2022",
        "flood_zone_level": "Baixa",
        "flood_zone_process": "Inundação",
        "flood_zone_distance_m": 981.8,
        "flood_zone_in_buffer": null,
        "flood_point_nearest_m": 1258.8,
        "flood_point_nearest_name": "Ponte da Nestlé — Av. Mário Zampieri — Parque Alvorada",
        "flood_point_nearest_phenomenon": "Alagamento",
        "climate_data_quality": "urbverde_2024",
        "heat_component": 0.7166,
        "vegetation_component": 0.6981,
        "social_component": 0.7576,
        "heat_component_0_100": 71.7,
        "vegetation_component_0_100": 69.8,
        "social_component_0_100": 75.8,
        "iecs_score": 72.4,
        "risk_level": "Alto",
        "ranking": 13.0,
        "vulnerability_source": "IBGE Censo 2022 — índice social-sanitário composto do projeto"
      }
    },
    {
      "type": "Feature",
      "geometry": {
        "type": "Point",
        "coordinates": [
          -48.1400177,
          -21.7765157
        ]
      },
      "properties": {
        "id": "SUS-038",
        "name": "CAPS II - Centro de Atenção Psicossocial \"Dr. Nelson Fernandes\"",
        "type": "CAPS (Atenção Psicossocial)",
        "lat": -21.7765157,
        "lon": -48.1400177,
        "address": "Rua Danilo Alvarenga Reis",
        "suburb": "Vila Joinville",
        "cnes": null,
        "network": "Rede Pública SUS / Filantrópico",
        "surface_temp_300m": 35.1493,
        "ndvi_300m": 0.3134,
        "climate_data_coverage_pct": 100.0,
        "census_population_300m": 1681.3066,
        "census_income_median_300m": 2063.3359,
        "census_share_children_300m": 0.1215,
        "census_share_elderly_300m": 0.1499,
        "census_crowding_300m": null,
        "vulnerability_score_300m": 3.42,
        "social_data_coverage_pct": 100.0,
        "vulnerability_data_quality": "censo_2022",
        "flood_zone_level": "Baixa",
        "flood_zone_process": "Inundação",
        "flood_zone_distance_m": 555.1,
        "flood_zone_in_buffer": null,
        "flood_point_nearest_m": 812.6,
        "flood_point_nearest_name": "Av. Francisco Vaz Filho — Jardim América",
        "flood_point_nearest_phenomenon": "Alagamento",
        "climate_data_quality": "urbverde_2024",
        "heat_component": 0.7312,
        "vegetation_component": 0.7151,
        "social_component": 0.6212,
        "heat_component_0_100": 73.1,
        "vegetation_component_0_100": 71.5,
        "social_component_0_100": 62.1,
        "iecs_score": 69.4,
        "risk_level": "Alto",
        "ranking": 14.0,
        "vulnerability_source": "IBGE Censo 2022 — índice social-sanitário composto do projeto"
      }
    },
    {
      "type": "Feature",
      "geometry": {
        "type": "Point",
        "coordinates": [
          -48.1585806,
          -21.758703
        ]
      },
      "properties": {
        "id": "SUS-013",
        "name": "PSF \"Adolfo Léo\"",
        "type": "USF (Saúde da Família)",
        "lat": -21.758703,
        "lon": -48.1585806,
        "address": "",
        "suburb": "Araraquara",
        "cnes": null,
        "network": "Rede Pública SUS / Filantrópico",
        "surface_temp_300m": 36.0799,
        "ndvi_300m": 0.27,
        "climate_data_coverage_pct": 100.0,
        "census_population_300m": 923.4374,
        "census_income_median_300m": 3992.7208,
        "census_share_children_300m": 0.096,
        "census_share_elderly_300m": 0.2018,
        "census_crowding_300m": null,
        "vulnerability_score_300m": 3.15,
        "social_data_coverage_pct": 100.0,
        "vulnerability_data_quality": "censo_2022",
        "flood_zone_level": "Baixa",
        "flood_zone_process": "Inundação",
        "flood_zone_distance_m": 676.3,
        "flood_zone_in_buffer": null,
        "flood_point_nearest_m": 938.7,
        "flood_point_nearest_name": "Rua Maurício Galli",
        "flood_point_nearest_phenomenon": "Inundação / Assoreamento",
        "climate_data_quality": "urbverde_2024",
        "heat_component": 0.8952,
        "vegetation_component": 0.8865,
        "social_component": 0.2121,
        "heat_component_0_100": 89.5,
        "vegetation_component_0_100": 88.6,
        "social_component_0_100": 21.2,
        "iecs_score": 68.8,
        "risk_level": "Alto",
        "ranking": 15.0,
        "vulnerability_source": "IBGE Censo 2022 — índice social-sanitário composto do projeto"
      }
    },
    {
      "type": "Feature",
      "geometry": {
        "type": "Point",
        "coordinates": [
          -48.1360224,
          -21.7671611
        ]
      },
      "properties": {
        "id": "SUS-033",
        "name": "USF Luis Alberto Marim Junior",
        "type": "USF (Saúde da Família)",
        "lat": -21.7671611,
        "lon": -48.1360224,
        "address": "",
        "suburb": "Araraquara",
        "cnes": null,
        "network": "Rede Pública SUS / Filantrópico",
        "surface_temp_300m": 35.4515,
        "ndvi_300m": 0.2999,
        "climate_data_coverage_pct": 100.0,
        "census_population_300m": 806.6111,
        "census_income_median_300m": 2773.988,
        "census_share_children_300m": 0.086,
        "census_share_elderly_300m": 0.2283,
        "census_crowding_300m": null,
        "vulnerability_score_300m": 3.32,
        "social_data_coverage_pct": 100.0,
        "vulnerability_data_quality": "censo_2022",
        "flood_zone_level": "Baixa",
        "flood_zone_process": "Inundação",
        "flood_zone_distance_m": 517.8,
        "flood_zone_in_buffer": null,
        "flood_point_nearest_m": 461.3,
        "flood_point_nearest_name": "Av. Francisco Vaz Filho — Jardim América",
        "flood_point_nearest_phenomenon": "Alagamento",
        "climate_data_quality": "urbverde_2024",
        "heat_component": 0.7844,
        "vegetation_component": 0.7684,
        "social_component": 0.4697,
        "heat_component_0_100": 78.4,
        "vegetation_component_0_100": 76.8,
        "social_component_0_100": 47.0,
        "iecs_score": 68.6,
        "risk_level": "Alto",
        "ranking": 16.0,
        "vulnerability_source": "IBGE Censo 2022 — índice social-sanitário composto do projeto"
      }
    },
    {
      "type": "Feature",
      "geometry": {
        "type": "Point",
        "coordinates": [
          -48.181597511772,
          -21.765828544108
        ]
      },
      "properties": {
        "id": "SUS-052",
        "name": "Centro Municipal de Referência do Autismo \"Aldo Pavão Júnior\"",
        "type": "Centro de Referência e Especialidades",
        "lat": -21.76582854,
        "lon": -48.18159751,
        "address": null,
        "suburb": "Jardim Dom Pedro I",
        "cnes": null,
        "network": null,
        "surface_temp_300m": 35.2795,
        "ndvi_300m": 0.3108,
        "climate_data_coverage_pct": 100.0,
        "census_population_300m": 1342.6807,
        "census_income_median_300m": 2463.4828,
        "census_share_children_300m": 0.0726,
        "census_share_elderly_300m": 0.262,
        "census_crowding_300m": null,
        "vulnerability_score_300m": 3.37,
        "social_data_coverage_pct": 100.0,
        "vulnerability_data_quality": "censo_2022",
        "flood_zone_level": "Média",
        "flood_zone_process": "Inundação",
        "flood_zone_distance_m": 356.6,
        "flood_zone_in_buffer": null,
        "flood_point_nearest_m": 404.8,
        "flood_point_nearest_name": "Rua Nove de Julho",
        "flood_point_nearest_phenomenon": "Inundação",
        "climate_data_quality": "urbverde_2024",
        "heat_component": 0.7541,
        "vegetation_component": 0.7253,
        "social_component": 0.5455,
        "heat_component_0_100": 75.4,
        "vegetation_component_0_100": 72.5,
        "social_component_0_100": 54.5,
        "iecs_score": 68.4,
        "risk_level": "Alto",
        "ranking": 17.0,
        "vulnerability_source": "IBGE Censo 2022 — índice social-sanitário composto do projeto"
      }
    },
    {
      "type": "Feature",
      "geometry": {
        "type": "Point",
        "coordinates": [
          -48.1812804,
          -21.7657695
        ]
      },
      "properties": {
        "id": "SUS-025",
        "name": "CISA - Centro Integrado de Saúde Auditiva",
        "type": "Posto / Centro de Saúde Público",
        "lat": -21.7657695,
        "lon": -48.1812804,
        "address": "Avenida Nove de Julho",
        "suburb": "Vila Jose Bonifacio",
        "cnes": null,
        "network": "Rede Pública SUS / Filantrópico",
        "surface_temp_300m": 35.2955,
        "ndvi_300m": 0.3102,
        "climate_data_coverage_pct": 100.0,
        "census_population_300m": 1292.5267,
        "census_income_median_300m": 2519.6097,
        "census_share_children_300m": 0.0728,
        "census_share_elderly_300m": 0.256,
        "census_crowding_300m": null,
        "vulnerability_score_300m": 3.35,
        "social_data_coverage_pct": 100.0,
        "vulnerability_data_quality": "censo_2022",
        "flood_zone_level": "Média",
        "flood_zone_process": "Inundação",
        "flood_zone_distance_m": 374.7,
        "flood_zone_in_buffer": null,
        "flood_point_nearest_m": 406.0,
        "flood_point_nearest_name": "Rua Nove de Julho",
        "flood_point_nearest_phenomenon": "Inundação",
        "climate_data_quality": "urbverde_2024",
        "heat_component": 0.7569,
        "vegetation_component": 0.7278,
        "social_component": 0.5152,
        "heat_component_0_100": 75.7,
        "vegetation_component_0_100": 72.8,
        "social_component_0_100": 51.5,
        "iecs_score": 67.7,
        "risk_level": "Alto",
        "ranking": 18.0,
        "vulnerability_source": "IBGE Censo 2022 — índice social-sanitário composto do projeto"
      }
    },
    {
      "type": "Feature",
      "geometry": {
        "type": "Point",
        "coordinates": [
          -48.182134995322,
          -21.771126013143
        ]
      },
      "properties": {
        "id": "SUS-050",
        "name": "CAPS-AD \"Dr. Calil Buainain\"",
        "type": "CAPS (Atenção Psicossocial)",
        "lat": -21.77112601,
        "lon": -48.182135,
        "address": null,
        "suburb": "Santa Angelina",
        "cnes": null,
        "network": null,
        "surface_temp_300m": 35.0884,
        "ndvi_300m": 0.32,
        "climate_data_coverage_pct": 100.0,
        "census_population_300m": 1045.9828,
        "census_income_median_300m": 3796.4243,
        "census_share_children_300m": 0.0603,
        "census_share_elderly_300m": 0.3898,
        "census_crowding_300m": null,
        "vulnerability_score_300m": 3.38,
        "social_data_coverage_pct": 100.0,
        "vulnerability_data_quality": "censo_2022",
        "flood_zone_level": "Média",
        "flood_zone_process": "Inundação",
        "flood_zone_distance_m": 740.1,
        "flood_zone_in_buffer": null,
        "flood_point_nearest_m": 235.3,
        "flood_point_nearest_name": "Rua Nove de Julho",
        "flood_point_nearest_phenomenon": "Inundação",
        "climate_data_quality": "urbverde_2024",
        "heat_component": 0.7204,
        "vegetation_component": 0.6891,
        "social_component": 0.5606,
        "heat_component_0_100": 72.0,
        "vegetation_component_0_100": 68.9,
        "social_component_0_100": 56.1,
        "iecs_score": 66.5,
        "risk_level": "Alto",
        "ranking": 19.0,
        "vulnerability_source": "IBGE Censo 2022 — índice social-sanitário composto do projeto"
      }
    },
    {
      "type": "Feature",
      "geometry": {
        "type": "Point",
        "coordinates": [
          -48.1345896,
          -21.7845425
        ]
      },
      "properties": {
        "id": "SUS-019",
        "name": "CMS/PACS Gustavo de Moraes Jr.",
        "type": "UBS / CMS (Unidade Básica)",
        "lat": -21.7845425,
        "lon": -48.1345896,
        "address": "",
        "suburb": "Araraquara",
        "cnes": null,
        "network": "Rede Pública SUS / Filantrópico",
        "surface_temp_300m": 34.5889,
        "ndvi_300m": 0.3415,
        "climate_data_coverage_pct": 100.0,
        "census_population_300m": 1198.8382,
        "census_income_median_300m": 1551.7106,
        "census_share_children_300m": 0.1467,
        "census_share_elderly_300m": 0.1066,
        "census_crowding_300m": null,
        "vulnerability_score_300m": 3.51,
        "social_data_coverage_pct": 100.0,
        "vulnerability_data_quality": "censo_2022",
        "flood_zone_level": "Média",
        "flood_zone_process": "Inundação",
        "flood_zone_distance_m": 157.4,
        "flood_zone_in_buffer": "Média",
        "flood_point_nearest_m": 728.2,
        "flood_point_nearest_name": "Rodovia Abdo Najn — acesso à SP-255",
        "flood_point_nearest_phenomenon": "Inundação",
        "climate_data_quality": "urbverde_2024",
        "heat_component": 0.6324,
        "vegetation_component": 0.6043,
        "social_component": 0.7576,
        "heat_component_0_100": 63.2,
        "vegetation_component_0_100": 60.4,
        "social_component_0_100": 75.8,
        "iecs_score": 66.3,
        "risk_level": "Alto",
        "ranking": 20.0,
        "vulnerability_source": "IBGE Censo 2022 — índice social-sanitário composto do projeto"
      }
    },
    {
      "type": "Feature",
      "geometry": {
        "type": "Point",
        "coordinates": [
          -48.1923563,
          -21.7432216
        ]
      },
      "properties": {
        "id": "SUS-009",
        "name": "Posto de Saúde da Família Doutora Neuza Maria Affini Dicenzo",
        "type": "USF (Saúde da Família)",
        "lat": -21.7432216,
        "lon": -48.1923563,
        "address": "Avenida Alfeu Gonçalves Belchior",
        "suburb": "Araraquara",
        "cnes": null,
        "network": "Rede Pública SUS / Filantrópico",
        "surface_temp_300m": 34.7109,
        "ndvi_300m": 0.3373,
        "climate_data_coverage_pct": 100.0,
        "census_population_300m": 1574.3902,
        "census_income_median_300m": 1940.9325,
        "census_share_children_300m": 0.1268,
        "census_share_elderly_300m": 0.1433,
        "census_crowding_300m": null,
        "vulnerability_score_300m": 3.44,
        "social_data_coverage_pct": 100.0,
        "vulnerability_data_quality": "censo_2022",
        "flood_zone_level": "Baixa",
        "flood_zone_process": "Inundação",
        "flood_zone_distance_m": 667.5,
        "flood_zone_in_buffer": null,
        "flood_point_nearest_m": 2164.2,
        "flood_point_nearest_name": "Av. José Barbieri Neto — trecho DAAE / Auto Posto Flora",
        "flood_point_nearest_phenomenon": "Enxurrada",
        "climate_data_quality": "urbverde_2024",
        "heat_component": 0.6539,
        "vegetation_component": 0.6205,
        "social_component": 0.6515,
        "heat_component_0_100": 65.4,
        "vegetation_component_0_100": 62.1,
        "social_component_0_100": 65.2,
        "iecs_score": 64.5,
        "risk_level": "Alto",
        "ranking": 21.0,
        "vulnerability_source": "IBGE Censo 2022 — índice social-sanitário composto do projeto"
      }
    },
    {
      "type": "Feature",
      "geometry": {
        "type": "Point",
        "coordinates": [
          -48.1497433,
          -21.7997891
        ]
      },
      "properties": {
        "id": "SUS-035",
        "name": "Centro Municipal de Saúde “Dr. Francisco Oswaldo Castelucci”",
        "type": "UBS / CMS (Unidade Básica)",
        "lat": -21.7997891,
        "lon": -48.1497433,
        "address": "Rua Domingos Paulo Real",
        "suburb": "Jardim Residencial Itália",
        "cnes": null,
        "network": "Rede Pública SUS / Filantrópico",
        "surface_temp_300m": 34.0893,
        "ndvi_300m": 0.3703,
        "climate_data_coverage_pct": 100.0,
        "census_population_300m": 1413.2045,
        "census_income_median_300m": 1976.4171,
        "census_share_children_300m": 0.1084,
        "census_share_elderly_300m": 0.2405,
        "census_crowding_300m": null,
        "vulnerability_score_300m": 3.54,
        "social_data_coverage_pct": 100.0,
        "vulnerability_data_quality": "censo_2022",
        "flood_zone_level": "Baixa",
        "flood_zone_process": "Inundação",
        "flood_zone_distance_m": 398.4,
        "flood_zone_in_buffer": null,
        "flood_point_nearest_m": 1087.0,
        "flood_point_nearest_name": "Ponte da Nestlé — Av. Mário Zampieri — Parque Alvorada",
        "flood_point_nearest_phenomenon": "Alagamento",
        "climate_data_quality": "urbverde_2024",
        "heat_component": 0.5444,
        "vegetation_component": 0.4903,
        "social_component": 0.803,
        "heat_component_0_100": 54.4,
        "vegetation_component_0_100": 49.0,
        "social_component_0_100": 80.3,
        "iecs_score": 60.8,
        "risk_level": "Alto",
        "ranking": 22.0,
        "vulnerability_source": "IBGE Censo 2022 — índice social-sanitário composto do projeto"
      }
    },
    {
      "type": "Feature",
      "geometry": {
        "type": "Point",
        "coordinates": [
          -48.1930371,
          -21.7671123
        ]
      },
      "properties": {
        "id": "SUS-006",
        "name": "Programa de Saúde da Família Doutor José Ricardo de Carvalho Angelieri",
        "type": "USF (Saúde da Família)",
        "lat": -21.7671123,
        "lon": -48.1930371,
        "address": "",
        "suburb": "Araraquara",
        "cnes": null,
        "network": "Rede Pública SUS / Filantrópico",
        "surface_temp_300m": 34.4385,
        "ndvi_300m": 0.3517,
        "climate_data_coverage_pct": 100.0,
        "census_population_300m": 2851.8979,
        "census_income_median_300m": 1997.0818,
        "census_share_children_300m": 0.1443,
        "census_share_elderly_300m": 0.0939,
        "census_crowding_300m": null,
        "vulnerability_score_300m": 3.42,
        "social_data_coverage_pct": 100.0,
        "vulnerability_data_quality": "censo_2022",
        "flood_zone_level": "Média",
        "flood_zone_process": "Inundação",
        "flood_zone_distance_m": 270.4,
        "flood_zone_in_buffer": "Média",
        "flood_point_nearest_m": 417.3,
        "flood_point_nearest_name": "Av. Prof. Gustavo Fleury Charmillot — Residencial Paraíso",
        "flood_point_nearest_phenomenon": "Alagamento",
        "climate_data_quality": "urbverde_2024",
        "heat_component": 0.6059,
        "vegetation_component": 0.5638,
        "social_component": 0.6212,
        "heat_component_0_100": 60.6,
        "vegetation_component_0_100": 56.4,
        "social_component_0_100": 62.1,
        "iecs_score": 60.0,
        "risk_level": "Alto",
        "ranking": 23.0,
        "vulnerability_source": "IBGE Censo 2022 — índice social-sanitário composto do projeto"
      }
    },
    {
      "type": "Feature",
      "geometry": {
        "type": "Point",
        "coordinates": [
          -48.1671244,
          -21.7734194
        ]
      },
      "properties": {
        "id": "SUS-043",
        "name": "UPA Central \"Amélia Bernardini Cutrale\"",
        "type": "UPA / Pronto Atendimento",
        "lat": -21.7734194,
        "lon": -48.1671244,
        "address": null,
        "suburb": "Vila Velosa",
        "cnes": null,
        "network": null,
        "surface_temp_300m": 35.5379,
        "ndvi_300m": 0.2931,
        "climate_data_coverage_pct": 100.0,
        "census_population_300m": 269.2426,
        "census_income_median_300m": 4092.7058,
        "census_share_children_300m": 0.101,
        "census_share_elderly_300m": 0.1448,
        "census_crowding_300m": null,
        "vulnerability_score_300m": 3.05,
        "social_data_coverage_pct": 100.0,
        "vulnerability_data_quality": "censo_2022",
        "flood_zone_level": "Baixa",
        "flood_zone_process": "Inundação",
        "flood_zone_distance_m": 1092.9,
        "flood_zone_in_buffer": null,
        "flood_point_nearest_m": 514.3,
        "flood_point_nearest_name": "Rua Napoleão Selmi Dei / Rua Henrique Lupo — Vila Harmonia",
        "flood_point_nearest_phenomenon": "Inundação",
        "climate_data_quality": "urbverde_2024",
        "heat_component": 0.7996,
        "vegetation_component": 0.7952,
        "social_component": 0.0606,
        "heat_component_0_100": 80.0,
        "vegetation_component_0_100": 79.5,
        "social_component_0_100": 6.1,
        "iecs_score": 57.7,
        "risk_level": "Alto",
        "ranking": 24.0,
        "vulnerability_source": "IBGE Censo 2022 — índice social-sanitário composto do projeto"
      }
    },
    {
      "type": "Feature",
      "geometry": {
        "type": "Point",
        "coordinates": [
          -48.1248601,
          -21.7820613
        ]
      },
      "properties": {
        "id": "SUS-030",
        "name": "ESF \"Prof. Dr. Ray de Paula e Silva\"",
        "type": "Posto / Centro de Saúde Público",
        "lat": -21.7820613,
        "lon": -48.1248601,
        "address": "",
        "suburb": "Araraquara",
        "cnes": null,
        "network": "Rede Pública SUS / Filantrópico",
        "surface_temp_300m": 34.3,
        "ndvi_300m": 0.36,
        "climate_data_coverage_pct": 100.0,
        "census_population_300m": 1501.7132,
        "census_income_median_300m": 1886.4321,
        "census_share_children_300m": 0.1431,
        "census_share_elderly_300m": 0.0874,
        "census_crowding_300m": null,
        "vulnerability_score_300m": 3.41,
        "social_data_coverage_pct": 100.0,
        "vulnerability_data_quality": "censo_2022",
        "flood_zone_level": "Baixa",
        "flood_zone_process": "Inundação",
        "flood_zone_distance_m": 512.4,
        "flood_zone_in_buffer": null,
        "flood_point_nearest_m": 1543.0,
        "flood_point_nearest_name": "Rodovia Abdo Najn — acesso à SP-255",
        "flood_point_nearest_phenomenon": "Inundação",
        "climate_data_quality": "urbverde_2024",
        "heat_component": 0.5815,
        "vegetation_component": 0.531,
        "social_component": 0.6061,
        "heat_component_0_100": 58.2,
        "vegetation_component_0_100": 53.1,
        "social_component_0_100": 60.6,
        "iecs_score": 57.6,
        "risk_level": "Alto",
        "ranking": 25.0,
        "vulnerability_source": "IBGE Censo 2022 — índice social-sanitário composto do projeto"
      }
    },
    {
      "type": "Feature",
      "geometry": {
        "type": "Point",
        "coordinates": [
          -48.1910856,
          -21.7885035
        ]
      },
      "properties": {
        "id": "SUS-041",
        "name": "Posto de Saúde Municipal",
        "type": "Posto / Centro de Saúde Público",
        "lat": -21.7885035,
        "lon": -48.1910856,
        "address": "",
        "suburb": "Araraquara",
        "cnes": null,
        "network": "Rede Pública SUS / Filantrópico",
        "surface_temp_300m": 33.7932,
        "ndvi_300m": 0.3788,
        "climate_data_coverage_pct": 100.0,
        "census_population_300m": 1150.7951,
        "census_income_median_300m": 2248.686,
        "census_share_children_300m": 0.0795,
        "census_share_elderly_300m": 0.3104,
        "census_crowding_300m": null,
        "vulnerability_score_300m": 3.51,
        "social_data_coverage_pct": 100.0,
        "vulnerability_data_quality": "censo_2022",
        "flood_zone_level": "Média",
        "flood_zone_process": "Inundação",
        "flood_zone_distance_m": 450.5,
        "flood_zone_in_buffer": null,
        "flood_point_nearest_m": 429.5,
        "flood_point_nearest_name": "Rua Imaculada Conceição — Jardim Tamoio",
        "flood_point_nearest_phenomenon": "Inundação",
        "climate_data_quality": "urbverde_2024",
        "heat_component": 0.4922,
        "vegetation_component": 0.4567,
        "social_component": 0.7576,
        "heat_component_0_100": 49.2,
        "vegetation_component_0_100": 45.7,
        "social_component_0_100": 75.8,
        "iecs_score": 56.3,
        "risk_level": "Alto",
        "ranking": 26.0,
        "vulnerability_source": "IBGE Censo 2022 — índice social-sanitário composto do projeto"
      }
    },
    {
      "type": "Feature",
      "geometry": {
        "type": "Point",
        "coordinates": [
          -48.1911834,
          -21.7885305
        ]
      },
      "properties": {
        "id": "SUS-026",
        "name": "PSF Santana",
        "type": "USF (Saúde da Família)",
        "lat": -21.7885305,
        "lon": -48.1911834,
        "address": "",
        "suburb": "Araraquara",
        "cnes": null,
        "network": "Rede Pública SUS / Filantrópico",
        "surface_temp_300m": 33.7779,
        "ndvi_300m": 0.3795,
        "climate_data_coverage_pct": 100.0,
        "census_population_300m": 1138.6033,
        "census_income_median_300m": 2246.4963,
        "census_share_children_300m": 0.0794,
        "census_share_elderly_300m": 0.3101,
        "census_crowding_300m": null,
        "vulnerability_score_300m": 3.51,
        "social_data_coverage_pct": 100.0,
        "vulnerability_data_quality": "censo_2022",
        "flood_zone_level": "Média",
        "flood_zone_process": "Inundação",
        "flood_zone_distance_m": 440.1,
        "flood_zone_in_buffer": null,
        "flood_point_nearest_m": 439.7,
        "flood_point_nearest_name": "Rua Imaculada Conceição — Jardim Tamoio",
        "flood_point_nearest_phenomenon": "Inundação",
        "climate_data_quality": "urbverde_2024",
        "heat_component": 0.4895,
        "vegetation_component": 0.454,
        "social_component": 0.7576,
        "heat_component_0_100": 49.0,
        "vegetation_component_0_100": 45.4,
        "social_component_0_100": 75.8,
        "iecs_score": 56.1,
        "risk_level": "Alto",
        "ranking": 27.0,
        "vulnerability_source": "IBGE Censo 2022 — índice social-sanitário composto do projeto"
      }
    },
    {
      "type": "Feature",
      "geometry": {
        "type": "Point",
        "coordinates": [
          -48.1817578,
          -21.7940446
        ]
      },
      "properties": {
        "id": "SUS-021",
        "name": "Hemocentro de Araraquara",
        "type": "Centro de Referência e Especialidades",
        "lat": -21.7940446,
        "lon": -48.1817578,
        "address": "",
        "suburb": "Araraquara",
        "cnes": null,
        "network": "Rede Pública SUS / Filantrópico",
        "surface_temp_300m": 34.347,
        "ndvi_300m": 0.3572,
        "climate_data_coverage_pct": 100.0,
        "census_population_300m": 675.7027,
        "census_income_median_300m": 4457.8504,
        "census_share_children_300m": 0.0582,
        "census_share_elderly_300m": 0.4023,
        "census_crowding_300m": null,
        "vulnerability_score_300m": 3.3,
        "social_data_coverage_pct": 100.0,
        "vulnerability_data_quality": "censo_2022",
        "flood_zone_level": "Baixa",
        "flood_zone_process": "Inundação",
        "flood_zone_distance_m": 930.1,
        "flood_zone_in_buffer": null,
        "flood_point_nearest_m": 503.7,
        "flood_point_nearest_name": "Av. Maria Antônia Camargo de Oliveira — Centro",
        "flood_point_nearest_phenomenon": "Inundação",
        "climate_data_quality": "urbverde_2024",
        "heat_component": 0.5898,
        "vegetation_component": 0.5422,
        "social_component": 0.4394,
        "heat_component_0_100": 59.0,
        "vegetation_component_0_100": 54.2,
        "social_component_0_100": 43.9,
        "iecs_score": 53.3,
        "risk_level": "Moderado",
        "ranking": 28.0,
        "vulnerability_source": "IBGE Censo 2022 — índice social-sanitário composto do projeto"
      }
    },
    {
      "type": "Feature",
      "geometry": {
        "type": "Point",
        "coordinates": [
          -48.1878883,
          -21.771494
        ]
      },
      "properties": {
        "id": "SUS-042",
        "name": "CMS Santa Angelina \"Rafael Sorbo\"",
        "type": "UBS / CMS (Unidade Básica)",
        "lat": -21.771494,
        "lon": -48.1878883,
        "address": "Rua Habbib Khodor, 560",
        "suburb": "Santa Angelina",
        "cnes": "2063247",
        "network": "Rede Pública SUS / Filantrópico",
        "surface_temp_300m": 34.6334,
        "ndvi_300m": 0.3383,
        "climate_data_coverage_pct": 100.0,
        "census_population_300m": 865.9588,
        "census_income_median_300m": 4369.3443,
        "census_share_children_300m": 0.0844,
        "census_share_elderly_300m": 0.2777,
        "census_crowding_300m": null,
        "vulnerability_score_300m": 3.19,
        "social_data_coverage_pct": 100.0,
        "vulnerability_data_quality": "censo_2022",
        "flood_zone_level": "Média",
        "flood_zone_process": "Inundação",
        "flood_zone_distance_m": 326.9,
        "flood_zone_in_buffer": null,
        "flood_point_nearest_m": 306.6,
        "flood_point_nearest_name": "Rua Armando Sales de Oliveira",
        "flood_point_nearest_phenomenon": "Inundação",
        "climate_data_quality": "urbverde_2024",
        "heat_component": 0.6403,
        "vegetation_component": 0.6166,
        "social_component": 0.2727,
        "heat_component_0_100": 64.0,
        "vegetation_component_0_100": 61.7,
        "social_component_0_100": 27.3,
        "iecs_score": 52.4,
        "risk_level": "Moderado",
        "ranking": 29.0,
        "vulnerability_source": "IBGE Censo 2022 — índice social-sanitário composto do projeto"
      }
    },
    {
      "type": "Feature",
      "geometry": {
        "type": "Point",
        "coordinates": [
          -48.18717603953,
          -21.781271007741
        ]
      },
      "properties": {
        "id": "SUS-049",
        "name": "Espaço Crescer Infantojuvenil — Maria Augusta Gonçalves Mendes \"Guta\"",
        "type": "Centro de Referência e Especialidades",
        "lat": -21.78127101,
        "lon": -48.18717604,
        "address": null,
        "suburb": "São Geraldo",
        "cnes": null,
        "network": null,
        "surface_temp_300m": 34.4,
        "ndvi_300m": 0.35,
        "climate_data_coverage_pct": 100.0,
        "census_population_300m": 1173.5467,
        "census_income_median_300m": 3507.2523,
        "census_share_children_300m": 0.0644,
        "census_share_elderly_300m": 0.2736,
        "census_crowding_300m": null,
        "vulnerability_score_300m": 3.22,
        "social_data_coverage_pct": 100.0,
        "vulnerability_data_quality": "censo_2022",
        "flood_zone_level": "Baixa",
        "flood_zone_process": "Inundação",
        "flood_zone_distance_m": 773.9,
        "flood_zone_in_buffer": null,
        "flood_point_nearest_m": 129.2,
        "flood_point_nearest_name": "Av. Pe. Francisco Sales Colturato / Rua Heitor Souza Pinheiro — Jardins dos Manacás",
        "flood_point_nearest_phenomenon": "Inundação",
        "climate_data_quality": "urbverde_2024",
        "heat_component": 0.5991,
        "vegetation_component": 0.5705,
        "social_component": 0.3182,
        "heat_component_0_100": 59.9,
        "vegetation_component_0_100": 57.1,
        "social_component_0_100": 31.8,
        "iecs_score": 50.8,
        "risk_level": "Moderado",
        "ranking": 30.0,
        "vulnerability_source": "IBGE Censo 2022 — índice social-sanitário composto do projeto"
      }
    },
    {
      "type": "Feature",
      "geometry": {
        "type": "Point",
        "coordinates": [
          -48.179867,
          -21.7894956
        ]
      },
      "properties": {
        "id": "SUS-011",
        "name": "Santa Casa de Araraquara",
        "type": "Hospital / Maternidade Público-Filantrópico",
        "lat": -21.7894956,
        "lon": -48.179867,
        "address": "Rua Voluntários da Pátria",
        "suburb": "Centro",
        "cnes": null,
        "network": "Rede Pública SUS / Filantrópico",
        "surface_temp_300m": 34.7,
        "ndvi_300m": 0.34,
        "climate_data_coverage_pct": 100.0,
        "census_population_300m": 763.6134,
        "census_income_median_300m": 5422.9662,
        "census_share_children_300m": 0.0603,
        "census_share_elderly_300m": 0.3803,
        "census_crowding_300m": null,
        "vulnerability_score_300m": 3.14,
        "social_data_coverage_pct": 100.0,
        "vulnerability_data_quality": "censo_2022",
        "flood_zone_level": "Baixa",
        "flood_zone_process": "Inundação",
        "flood_zone_distance_m": 764.9,
        "flood_zone_in_buffer": null,
        "flood_point_nearest_m": 678.4,
        "flood_point_nearest_name": "Av. Maria Antônia Camargo de Oliveira — Centro",
        "flood_point_nearest_phenomenon": "Inundação",
        "climate_data_quality": "urbverde_2024",
        "heat_component": 0.652,
        "vegetation_component": 0.61,
        "social_component": 0.197,
        "heat_component_0_100": 65.2,
        "vegetation_component_0_100": 61.0,
        "social_component_0_100": 19.7,
        "iecs_score": 50.5,
        "risk_level": "Moderado",
        "ranking": 31.0,
        "vulnerability_source": "IBGE Censo 2022 — índice social-sanitário composto do projeto"
      }
    },
    {
      "type": "Feature",
      "geometry": {
        "type": "Point",
        "coordinates": [
          -48.1780795,
          -21.7896043
        ]
      },
      "properties": {
        "id": "SUS-014",
        "name": "NGA-3 -Núcleo de Gestão Ambulatorial \"Dr. Francisco Logatti\"",
        "type": "Centro de Referência e Especialidades",
        "lat": -21.7896043,
        "lon": -48.1780795,
        "address": "Avenida José Bonifácio",
        "suburb": "Centro",
        "cnes": null,
        "network": "Rede Pública SUS / Filantrópico",
        "surface_temp_300m": 34.7258,
        "ndvi_300m": 0.3383,
        "climate_data_coverage_pct": 100.0,
        "census_population_300m": 502.1914,
        "census_income_median_300m": 5457.1243,
        "census_share_children_300m": 0.0477,
        "census_share_elderly_300m": 0.4008,
        "census_crowding_300m": null,
        "vulnerability_score_300m": 3.12,
        "social_data_coverage_pct": 100.0,
        "vulnerability_data_quality": "censo_2022",
        "flood_zone_level": "Baixa",
        "flood_zone_process": "Inundação",
        "flood_zone_distance_m": 579.5,
        "flood_zone_in_buffer": null,
        "flood_point_nearest_m": 608.4,
        "flood_point_nearest_name": "Av. Maria Antônia Camargo de Oliveira — Centro",
        "flood_point_nearest_phenomenon": "Inundação",
        "climate_data_quality": "urbverde_2024",
        "heat_component": 0.6565,
        "vegetation_component": 0.6168,
        "social_component": 0.1667,
        "heat_component_0_100": 65.7,
        "vegetation_component_0_100": 61.7,
        "social_component_0_100": 16.7,
        "iecs_score": 50.0,
        "risk_level": "Moderado",
        "ranking": 32.0,
        "vulnerability_source": "IBGE Censo 2022 — índice social-sanitário composto do projeto"
      }
    },
    {
      "type": "Feature",
      "geometry": {
        "type": "Point",
        "coordinates": [
          -48.1801092,
          -21.79454
        ]
      },
      "properties": {
        "id": "SUS-022",
        "name": "SESA",
        "type": "Centro de Referência e Especialidades",
        "lat": -21.79454,
        "lon": -48.1801092,
        "address": "",
        "suburb": "Araraquara",
        "cnes": null,
        "network": "Rede Pública SUS / Filantrópico",
        "surface_temp_300m": 34.3243,
        "ndvi_300m": 0.3588,
        "climate_data_coverage_pct": 100.0,
        "census_population_300m": 690.2475,
        "census_income_median_300m": 4805.5054,
        "census_share_children_300m": 0.0496,
        "census_share_elderly_300m": 0.4102,
        "census_crowding_300m": null,
        "vulnerability_score_300m": 3.23,
        "social_data_coverage_pct": 100.0,
        "vulnerability_data_quality": "censo_2022",
        "flood_zone_level": "Baixa",
        "flood_zone_process": "Inundação",
        "flood_zone_distance_m": 756.2,
        "flood_zone_in_buffer": null,
        "flood_point_nearest_m": 325.8,
        "flood_point_nearest_name": "Av. Maria Antônia Camargo de Oliveira — Centro",
        "flood_point_nearest_phenomenon": "Inundação",
        "climate_data_quality": "urbverde_2024",
        "heat_component": 0.5858,
        "vegetation_component": 0.5358,
        "social_component": 0.3333,
        "heat_component_0_100": 58.6,
        "vegetation_component_0_100": 53.6,
        "social_component_0_100": 33.3,
        "iecs_score": 49.8,
        "risk_level": "Moderado",
        "ranking": 33.0,
        "vulnerability_source": "IBGE Censo 2022 — índice social-sanitário composto do projeto"
      }
    },
    {
      "type": "Feature",
      "geometry": {
        "type": "Point",
        "coordinates": [
          -48.1776166,
          -21.7901337
        ]
      },
      "properties": {
        "id": "SUS-028",
        "name": "Hospital São Francisco",
        "type": "Hospital / Maternidade Público-Filantrópico",
        "lat": -21.7901337,
        "lon": -48.1776166,
        "address": "",
        "suburb": "Araraquara",
        "cnes": null,
        "network": "Rede Pública SUS / Filantrópico",
        "surface_temp_300m": 34.7492,
        "ndvi_300m": 0.3367,
        "climate_data_coverage_pct": 100.0,
        "census_population_300m": 471.5682,
        "census_income_median_300m": 5770.7094,
        "census_share_children_300m": 0.0468,
        "census_share_elderly_300m": 0.3833,
        "census_crowding_300m": null,
        "vulnerability_score_300m": 3.04,
        "social_data_coverage_pct": 100.0,
        "vulnerability_data_quality": "censo_2022",
        "flood_zone_level": "Baixa",
        "flood_zone_process": "Inundação",
        "flood_zone_distance_m": 528.9,
        "flood_zone_in_buffer": null,
        "flood_point_nearest_m": 543.1,
        "flood_point_nearest_name": "Av. Maria Antônia Camargo de Oliveira — Centro",
        "flood_point_nearest_phenomenon": "Inundação",
        "climate_data_quality": "urbverde_2024",
        "heat_component": 0.6607,
        "vegetation_component": 0.623,
        "social_component": 0.0455,
        "heat_component_0_100": 66.1,
        "vegetation_component_0_100": 62.3,
        "social_component_0_100": 4.5,
        "iecs_score": 46.7,
        "risk_level": "Moderado",
        "ranking": 34.0,
        "vulnerability_source": "IBGE Censo 2022 — índice social-sanitário composto do projeto"
      }
    },
    {
      "type": "Feature",
      "geometry": {
        "type": "Point",
        "coordinates": [
          -48.1797266,
          -21.7981265
        ]
      },
      "properties": {
        "id": "SUS-003",
        "name": "Posto de Saúde Municipal",
        "type": "Posto / Centro de Saúde Público",
        "lat": -21.7981265,
        "lon": -48.1797266,
        "address": "",
        "suburb": "Araraquara",
        "cnes": null,
        "network": "Rede Pública SUS / Filantrópico",
        "surface_temp_300m": 34.1,
        "ndvi_300m": 0.37,
        "climate_data_coverage_pct": 100.0,
        "census_population_300m": 948.5504,
        "census_income_median_300m": 3377.829,
        "census_share_children_300m": 0.0411,
        "census_share_elderly_300m": 0.3187,
        "census_crowding_300m": null,
        "vulnerability_score_300m": 3.22,
        "social_data_coverage_pct": 100.0,
        "vulnerability_data_quality": "censo_2022",
        "flood_zone_level": "Baixa",
        "flood_zone_process": "Inundação",
        "flood_zone_distance_m": 657.4,
        "flood_zone_in_buffer": null,
        "flood_point_nearest_m": 446.9,
        "flood_point_nearest_name": "Av. Maria Antônia Camargo de Oliveira — Centro",
        "flood_point_nearest_phenomenon": "Inundação",
        "climate_data_quality": "urbverde_2024",
        "heat_component": 0.5463,
        "vegetation_component": 0.4915,
        "social_component": 0.3182,
        "heat_component_0_100": 54.6,
        "vegetation_component_0_100": 49.2,
        "social_component_0_100": 31.8,
        "iecs_score": 46.4,
        "risk_level": "Moderado",
        "ranking": 35.0,
        "vulnerability_source": "IBGE Censo 2022 — índice social-sanitário composto do projeto"
      }
    },
    {
      "type": "Feature",
      "geometry": {
        "type": "Point",
        "coordinates": [
          -48.1475172,
          -21.81133
        ]
      },
      "properties": {
        "id": "SUS-027",
        "name": "Hospital Psiquiátrico Espírita Cairbar Schutel",
        "type": "Hospital / Maternidade Público-Filantrópico",
        "lat": -21.81133,
        "lon": -48.1475172,
        "address": "Avenida Cairbar Schutel",
        "suburb": "Araraquara",
        "cnes": null,
        "network": "Rede Pública SUS / Filantrópico",
        "surface_temp_300m": 33.0401,
        "ndvi_300m": 0.414,
        "climate_data_coverage_pct": 100.0,
        "census_population_300m": 800.9601,
        "census_income_median_300m": 1698.3428,
        "census_share_children_300m": 0.1284,
        "census_share_elderly_300m": 0.1495,
        "census_crowding_300m": null,
        "vulnerability_score_300m": 3.5,
        "social_data_coverage_pct": 100.0,
        "vulnerability_data_quality": "censo_2022",
        "flood_zone_level": "Baixa",
        "flood_zone_process": "Inundação",
        "flood_zone_distance_m": 436.0,
        "flood_zone_in_buffer": null,
        "flood_point_nearest_m": 628.8,
        "flood_point_nearest_name": "Av. Eng. Camillo Dinucci / Av. Ermano Biancardi — Jardim Arco-Íris",
        "flood_point_nearest_phenomenon": "Alagamento",
        "climate_data_quality": "urbverde_2024",
        "heat_component": 0.3595,
        "vegetation_component": 0.3178,
        "social_component": 0.7424,
        "heat_component_0_100": 35.9,
        "vegetation_component_0_100": 31.8,
        "social_component_0_100": 74.2,
        "iecs_score": 46.4,
        "risk_level": "Moderado",
        "ranking": 36.0,
        "vulnerability_source": "IBGE Censo 2022 — índice social-sanitário composto do projeto"
      }
    },
    {
      "type": "Feature",
      "geometry": {
        "type": "Point",
        "coordinates": [
          -48.211601,
          -21.762065
        ]
      },
      "properties": {
        "id": "SUS-007",
        "name": "USF Jardim São Bento — Selma Rita Canelas Ferrari Nogueira",
        "type": "USF (Saúde da Família)",
        "lat": -21.762065,
        "lon": -48.211601,
        "address": "",
        "suburb": "Jardim São Bento",
        "cnes": null,
        "network": "Rede Pública SUS / Filantrópico",
        "surface_temp_300m": 33.1969,
        "ndvi_300m": 0.4052,
        "climate_data_coverage_pct": 100.0,
        "census_population_300m": 1018.9153,
        "census_income_median_300m": 1998.203,
        "census_share_children_300m": 0.1626,
        "census_share_elderly_300m": 0.0646,
        "census_crowding_300m": null,
        "vulnerability_score_300m": 3.44,
        "social_data_coverage_pct": 100.0,
        "vulnerability_data_quality": "censo_2022",
        "flood_zone_level": "Média",
        "flood_zone_process": "Inundação",
        "flood_zone_distance_m": 180.7,
        "flood_zone_in_buffer": "Média",
        "flood_point_nearest_m": 984.7,
        "flood_point_nearest_name": "Rua Tirso Alves Corrêa — Parque Tropical",
        "flood_point_nearest_phenomenon": "Solapamento de margens fluvial",
        "climate_data_quality": "urbverde_2024",
        "heat_component": 0.3871,
        "vegetation_component": 0.3527,
        "social_component": 0.6515,
        "heat_component_0_100": 38.7,
        "vegetation_component_0_100": 35.3,
        "social_component_0_100": 65.2,
        "iecs_score": 45.8,
        "risk_level": "Moderado",
        "ranking": 37.0,
        "vulnerability_source": "IBGE Censo 2022 — índice social-sanitário composto do projeto"
      }
    },
    {
      "type": "Feature",
      "geometry": {
        "type": "Point",
        "coordinates": [
          -48.1664959,
          -21.8096526
        ]
      },
      "properties": {
        "id": "SUS-031",
        "name": "UBS Dr. Giuseppe Aufiero Sobrinho",
        "type": "UBS / CMS (Unidade Básica)",
        "lat": -21.8096526,
        "lon": -48.1664959,
        "address": "Rua Capitão José Sabino Sampaio",
        "suburb": "Araraquara",
        "cnes": null,
        "network": "Rede Pública SUS / Filantrópico",
        "surface_temp_300m": 33.3283,
        "ndvi_300m": 0.3986,
        "climate_data_coverage_pct": 100.0,
        "census_population_300m": 1032.5957,
        "census_income_median_300m": 2905.7187,
        "census_share_children_300m": 0.0968,
        "census_share_elderly_300m": 0.2521,
        "census_crowding_300m": null,
        "vulnerability_score_300m": 3.39,
        "social_data_coverage_pct": 100.0,
        "vulnerability_data_quality": "censo_2022",
        "flood_zone_level": "Média",
        "flood_zone_process": "Inundação",
        "flood_zone_distance_m": 653.0,
        "flood_zone_in_buffer": null,
        "flood_point_nearest_m": 1316.1,
        "flood_point_nearest_name": "Av. Maria Antônia Camargo de Oliveira — Vila Melhado",
        "flood_point_nearest_phenomenon": "Inundação",
        "climate_data_quality": "urbverde_2024",
        "heat_component": 0.4103,
        "vegetation_component": 0.3786,
        "social_component": 0.5758,
        "heat_component_0_100": 41.0,
        "vegetation_component_0_100": 37.9,
        "social_component_0_100": 57.6,
        "iecs_score": 45.2,
        "risk_level": "Moderado",
        "ranking": 38.0,
        "vulnerability_source": "IBGE Censo 2022 — índice social-sanitário composto do projeto"
      }
    },
    {
      "type": "Feature",
      "geometry": {
        "type": "Point",
        "coordinates": [
          -48.1437854,
          -21.810066
        ]
      },
      "properties": {
        "id": "SUS-004",
        "name": "USF Farmacêutico Cristovão Colombo",
        "type": "USF (Saúde da Família)",
        "lat": -21.810066,
        "lon": -48.1437854,
        "address": "",
        "suburb": "Araraquara",
        "cnes": null,
        "network": "Rede Pública SUS / Filantrópico",
        "surface_temp_300m": 33.1579,
        "ndvi_300m": 0.4109,
        "climate_data_coverage_pct": 100.0,
        "census_population_300m": 1104.1881,
        "census_income_median_300m": 2096.3326,
        "census_share_children_300m": 0.1398,
        "census_share_elderly_300m": 0.1248,
        "census_crowding_300m": null,
        "vulnerability_score_300m": 3.44,
        "social_data_coverage_pct": 100.0,
        "vulnerability_data_quality": "censo_2022",
        "flood_zone_level": "Baixa",
        "flood_zone_process": "Inundação",
        "flood_zone_distance_m": 259.1,
        "flood_zone_in_buffer": "Baixa",
        "flood_point_nearest_m": 975.7,
        "flood_point_nearest_name": "Av. Eng. Camillo Dinucci / Av. Ermano Biancardi — Jardim Arco-Íris",
        "flood_point_nearest_phenomenon": "Alagamento",
        "climate_data_quality": "urbverde_2024",
        "heat_component": 0.3803,
        "vegetation_component": 0.3299,
        "social_component": 0.6515,
        "heat_component_0_100": 38.0,
        "vegetation_component_0_100": 33.0,
        "social_component_0_100": 65.2,
        "iecs_score": 44.9,
        "risk_level": "Moderado",
        "ranking": 39.0,
        "vulnerability_source": "IBGE Censo 2022 — índice social-sanitário composto do projeto"
      }
    },
    {
      "type": "Feature",
      "geometry": {
        "type": "Point",
        "coordinates": [
          -48.198867,
          -21.7884802
        ]
      },
      "properties": {
        "id": "SUS-002",
        "name": "Estratégia de Saúde da Família João Francisco Alves",
        "type": "USF (Saúde da Família)",
        "lat": -21.7884802,
        "lon": -48.198867,
        "address": "",
        "suburb": "Araraquara",
        "cnes": null,
        "network": "Rede Pública SUS / Filantrópico",
        "surface_temp_300m": 33.1526,
        "ndvi_300m": 0.4074,
        "climate_data_coverage_pct": 100.0,
        "census_population_300m": 960.1019,
        "census_income_median_300m": 2246.8589,
        "census_share_children_300m": 0.1108,
        "census_share_elderly_300m": 0.1929,
        "census_crowding_300m": null,
        "vulnerability_score_300m": 3.43,
        "social_data_coverage_pct": 100.0,
        "vulnerability_data_quality": "censo_2022",
        "flood_zone_level": "Média",
        "flood_zone_process": "Inundação",
        "flood_zone_distance_m": 279.8,
        "flood_zone_in_buffer": "Média",
        "flood_point_nearest_m": 948.6,
        "flood_point_nearest_name": "Rua Dr. Giuseppe Aufiero Sobrinho — Jardim Nova Araraquara",
        "flood_point_nearest_phenomenon": "Enxurrada",
        "climate_data_quality": "urbverde_2024",
        "heat_component": 0.3793,
        "vegetation_component": 0.3437,
        "social_component": 0.6364,
        "heat_component_0_100": 37.9,
        "vegetation_component_0_100": 34.4,
        "social_component_0_100": 63.6,
        "iecs_score": 44.8,
        "risk_level": "Moderado",
        "ranking": 40.0,
        "vulnerability_source": "IBGE Censo 2022 — índice social-sanitário composto do projeto"
      }
    },
    {
      "type": "Feature",
      "geometry": {
        "type": "Point",
        "coordinates": [
          -48.1787087,
          -21.7936743
        ]
      },
      "properties": {
        "id": "SUS-017",
        "name": "Maternidade Gota de Leite",
        "type": "Hospital / Maternidade Público-Filantrópico",
        "lat": -21.7936743,
        "lon": -48.1787087,
        "address": "Rua Carlos Gomes",
        "suburb": "Centro",
        "cnes": null,
        "network": "Rede Pública SUS / Filantrópico",
        "surface_temp_300m": 34.4491,
        "ndvi_300m": 0.3525,
        "climate_data_coverage_pct": 100.0,
        "census_population_300m": 684.0936,
        "census_income_median_300m": 6135.3722,
        "census_share_children_300m": 0.0534,
        "census_share_elderly_300m": 0.4112,
        "census_crowding_300m": null,
        "vulnerability_score_300m": 3.07,
        "social_data_coverage_pct": 100.0,
        "vulnerability_data_quality": "censo_2022",
        "flood_zone_level": "Baixa",
        "flood_zone_process": "Inundação",
        "flood_zone_distance_m": 613.8,
        "flood_zone_in_buffer": null,
        "flood_point_nearest_m": 229.9,
        "flood_point_nearest_name": "Av. Maria Antônia Camargo de Oliveira — Centro",
        "flood_point_nearest_phenomenon": "Inundação",
        "climate_data_quality": "urbverde_2024",
        "heat_component": 0.6078,
        "vegetation_component": 0.5606,
        "social_component": 0.0909,
        "heat_component_0_100": 60.8,
        "vegetation_component_0_100": 56.1,
        "social_component_0_100": 9.1,
        "iecs_score": 44.1,
        "risk_level": "Moderado",
        "ranking": 41.0,
        "vulnerability_source": "IBGE Censo 2022 — índice social-sanitário composto do projeto"
      }
    },
    {
      "type": "Feature",
      "geometry": {
        "type": "Point",
        "coordinates": [
          -48.192962,
          -21.914483
        ]
      },
      "properties": {
        "id": "SUS-047",
        "name": "USF Assentamento Bela Vista — Dr. Elias Zakaib",
        "type": "USF (Saúde da Família)",
        "lat": -21.914483,
        "lon": -48.192962,
        "address": null,
        "suburb": "Assentamento Bela Vista",
        "cnes": null,
        "network": null,
        "surface_temp_300m": 31.0,
        "ndvi_300m": 0.35,
        "climate_data_coverage_pct": 0.0,
        "census_population_300m": 144.459,
        "census_income_median_300m": 1308.6091,
        "census_share_children_300m": 0.1053,
        "census_share_elderly_300m": 0.2467,
        "census_crowding_300m": null,
        "vulnerability_score_300m": 3.63,
        "social_data_coverage_pct": 100.0,
        "vulnerability_data_quality": "censo_2022",
        "flood_zone_level": "Média",
        "flood_zone_process": "Inundação",
        "flood_zone_distance_m": 1371.6,
        "flood_zone_in_buffer": null,
        "flood_point_nearest_m": 8562.5,
        "flood_point_nearest_name": "Estrada Abílio Augusto Corrêa — Bairro dos Machados",
        "flood_point_nearest_phenomenon": "Inundação",
        "climate_data_quality": "sem_intersecao_urbverde_fallback",
        "heat_component": 0.0,
        "vegetation_component": 0.5705,
        "social_component": 0.9394,
        "heat_component_0_100": 0.0,
        "vegetation_component_0_100": 57.1,
        "social_component_0_100": 93.9,
        "iecs_score": 42.4,
        "risk_level": "Moderado",
        "ranking": 42.0,
        "vulnerability_source": "IBGE Censo 2022 — índice social-sanitário composto do projeto"
      }
    },
    {
      "type": "Feature",
      "geometry": {
        "type": "Point",
        "coordinates": [
          -48.1580192,
          -21.8102539
        ]
      },
      "properties": {
        "id": "SUS-020",
        "name": "Hospital Canasol",
        "type": "Hospital / Maternidade Público-Filantrópico",
        "lat": -21.8102539,
        "lon": -48.1580192,
        "address": "Rua Papa João Paulo I",
        "suburb": "Jardim Higienópolis",
        "cnes": null,
        "network": "Rede Pública SUS / Filantrópico",
        "surface_temp_300m": 33.3022,
        "ndvi_300m": 0.4024,
        "climate_data_coverage_pct": 100.0,
        "census_population_300m": 536.4187,
        "census_income_median_300m": 3634.7301,
        "census_share_children_300m": 0.0779,
        "census_share_elderly_300m": 0.3221,
        "census_crowding_300m": null,
        "vulnerability_score_300m": 3.34,
        "social_data_coverage_pct": 100.0,
        "vulnerability_data_quality": "censo_2022",
        "flood_zone_level": "Baixa",
        "flood_zone_process": "Inundação",
        "flood_zone_distance_m": 911.9,
        "flood_zone_in_buffer": null,
        "flood_point_nearest_m": 513.6,
        "flood_point_nearest_name": "Av. Eng. Camillo Dinucci / Av. Ermano Biancardi — Jardim Arco-Íris",
        "flood_point_nearest_phenomenon": "Alagamento",
        "climate_data_quality": "urbverde_2024",
        "heat_component": 0.4057,
        "vegetation_component": 0.3636,
        "social_component": 0.5,
        "heat_component_0_100": 40.6,
        "vegetation_component_0_100": 36.4,
        "social_component_0_100": 50.0,
        "iecs_score": 42.3,
        "risk_level": "Moderado",
        "ranking": 43.0,
        "vulnerability_source": "IBGE Censo 2022 — índice social-sanitário composto do projeto"
      }
    },
    {
      "type": "Feature",
      "geometry": {
        "type": "Point",
        "coordinates": [
          -48.2072602,
          -21.7737811
        ]
      },
      "properties": {
        "id": "SUS-001",
        "name": "Estratégia de Saúde da Família Doutor Euclides Crocci",
        "type": "USF (Saúde da Família)",
        "lat": -21.7737811,
        "lon": -48.2072602,
        "address": "",
        "suburb": "Araraquara",
        "cnes": null,
        "network": "Rede Pública SUS / Filantrópico",
        "surface_temp_300m": 33.2965,
        "ndvi_300m": 0.4002,
        "climate_data_coverage_pct": 100.0,
        "census_population_300m": 1717.7694,
        "census_income_median_300m": 2319.5773,
        "census_share_children_300m": 0.103,
        "census_share_elderly_300m": 0.1617,
        "census_crowding_300m": null,
        "vulnerability_score_300m": 3.33,
        "social_data_coverage_pct": 100.0,
        "vulnerability_data_quality": "censo_2022",
        "flood_zone_level": "Média",
        "flood_zone_process": "Inundação",
        "flood_zone_distance_m": 528.5,
        "flood_zone_in_buffer": null,
        "flood_point_nearest_m": 776.9,
        "flood_point_nearest_name": "Av. José Barbanti Neto — Jardim Nova Araraquara",
        "flood_point_nearest_phenomenon": "Enxurrada",
        "climate_data_quality": "urbverde_2024",
        "heat_component": 0.4047,
        "vegetation_component": 0.3724,
        "social_component": 0.4848,
        "heat_component_0_100": 40.5,
        "vegetation_component_0_100": 37.2,
        "social_component_0_100": 48.5,
        "iecs_score": 42.1,
        "risk_level": "Moderado",
        "ranking": 44.0,
        "vulnerability_source": "IBGE Censo 2022 — índice social-sanitário composto do projeto"
      }
    },
    {
      "type": "Feature",
      "geometry": {
        "type": "Point",
        "coordinates": [
          -48.1711288,
          -21.8050865
        ]
      },
      "properties": {
        "id": "SUS-008",
        "name": "Centro de Estabilização do Melhado",
        "type": "UPA / Pronto Atendimento",
        "lat": -21.8050865,
        "lon": -48.1711288,
        "address": "",
        "suburb": "Araraquara",
        "cnes": null,
        "network": "Rede Pública SUS / Filantrópico",
        "surface_temp_300m": 33.5,
        "ndvi_300m": 0.39,
        "climate_data_coverage_pct": 100.0,
        "census_population_300m": 620.2142,
        "census_income_median_300m": 3453.0292,
        "census_share_children_300m": 0.0843,
        "census_share_elderly_300m": 0.2274,
        "census_crowding_300m": null,
        "vulnerability_score_300m": 3.22,
        "social_data_coverage_pct": 100.0,
        "vulnerability_data_quality": "censo_2022",
        "flood_zone_level": "Média",
        "flood_zone_process": "Inundação",
        "flood_zone_distance_m": 0.0,
        "flood_zone_in_buffer": "Alta",
        "flood_point_nearest_m": 651.6,
        "flood_point_nearest_name": "Av. Maria Antônia Camargo de Oliveira — Vila Melhado",
        "flood_point_nearest_phenomenon": "Inundação",
        "climate_data_quality": "urbverde_2024",
        "heat_component": 0.4405,
        "vegetation_component": 0.4125,
        "social_component": 0.3182,
        "heat_component_0_100": 44.1,
        "vegetation_component_0_100": 41.3,
        "social_component_0_100": 31.8,
        "iecs_score": 39.7,
        "risk_level": "Moderado",
        "ranking": 45.0,
        "vulnerability_source": "IBGE Censo 2022 — índice social-sanitário composto do projeto"
      }
    },
    {
      "type": "Feature",
      "geometry": {
        "type": "Point",
        "coordinates": [
          -48.1827921,
          -21.809614
        ]
      },
      "properties": {
        "id": "SUS-029",
        "name": "CMS Carmo",
        "type": "UBS / CMS (Unidade Básica)",
        "lat": -21.809614,
        "lon": -48.1827921,
        "address": "",
        "suburb": "Araraquara",
        "cnes": null,
        "network": "Rede Pública SUS / Filantrópico",
        "surface_temp_300m": 32.5808,
        "ndvi_300m": 0.4383,
        "climate_data_coverage_pct": 100.0,
        "census_population_300m": 1420.7905,
        "census_income_median_300m": 2374.0912,
        "census_share_children_300m": 0.0712,
        "census_share_elderly_300m": 0.2874,
        "census_crowding_300m": null,
        "vulnerability_score_300m": 3.42,
        "social_data_coverage_pct": 100.0,
        "vulnerability_data_quality": "censo_2022",
        "flood_zone_level": "Média",
        "flood_zone_process": "Inundação",
        "flood_zone_distance_m": 313.6,
        "flood_zone_in_buffer": null,
        "flood_point_nearest_m": 1504.6,
        "flood_point_nearest_name": "Av. Maria Antônia Camargo de Oliveira — Vila Melhado",
        "flood_point_nearest_phenomenon": "Inundação",
        "climate_data_quality": "urbverde_2024",
        "heat_component": 0.2786,
        "vegetation_component": 0.2219,
        "social_component": 0.6212,
        "heat_component_0_100": 27.9,
        "vegetation_component_0_100": 22.2,
        "social_component_0_100": 62.1,
        "iecs_score": 36.7,
        "risk_level": "Moderado",
        "ranking": 46.0,
        "vulnerability_source": "IBGE Censo 2022 — índice social-sanitário composto do projeto"
      }
    },
    {
      "type": "Feature",
      "geometry": {
        "type": "Point",
        "coordinates": [
          -48.2036181,
          -21.7926302
        ]
      },
      "properties": {
        "id": "SUS-032",
        "name": "USF Parque das Laranjeiras",
        "type": "USF (Saúde da Família)",
        "lat": -21.7926302,
        "lon": -48.2036181,
        "address": "Avenida Rômulo Lupo",
        "suburb": "Araraquara",
        "cnes": null,
        "network": "Rede Pública SUS / Filantrópico",
        "surface_temp_300m": 32.604,
        "ndvi_300m": 0.4358,
        "climate_data_coverage_pct": 100.0,
        "census_population_300m": 826.8567,
        "census_income_median_300m": 2685.2011,
        "census_share_children_300m": 0.1102,
        "census_share_elderly_300m": 0.2081,
        "census_crowding_300m": null,
        "vulnerability_score_300m": 3.39,
        "social_data_coverage_pct": 100.0,
        "vulnerability_data_quality": "censo_2022",
        "flood_zone_level": "Média",
        "flood_zone_process": "Inundação",
        "flood_zone_distance_m": 557.6,
        "flood_zone_in_buffer": null,
        "flood_point_nearest_m": 1167.6,
        "flood_point_nearest_name": "Rua Dr. Giuseppe Aufiero Sobrinho — Jardim Nova Araraquara",
        "flood_point_nearest_phenomenon": "Enxurrada",
        "climate_data_quality": "urbverde_2024",
        "heat_component": 0.2827,
        "vegetation_component": 0.2318,
        "social_component": 0.5758,
        "heat_component_0_100": 28.3,
        "vegetation_component_0_100": 23.2,
        "social_component_0_100": 57.6,
        "iecs_score": 35.8,
        "risk_level": "Moderado",
        "ranking": 47.0,
        "vulnerability_source": "IBGE Censo 2022 — índice social-sanitário composto do projeto"
      }
    },
    {
      "type": "Feature",
      "geometry": {
        "type": "Point",
        "coordinates": [
          -48.245554,
          -21.591459
        ]
      },
      "properties": {
        "id": "SUS-048",
        "name": "USF Assentamento Monte Alegre — Dirce Ragassi Cândido",
        "type": "USF (Saúde da Família)",
        "lat": -21.591459,
        "lon": -48.245554,
        "address": null,
        "suburb": "Assentamento Monte Alegre III",
        "cnes": null,
        "network": null,
        "surface_temp_300m": 31.0,
        "ndvi_300m": 0.35,
        "climate_data_coverage_pct": 0.0,
        "census_population_300m": 51.4735,
        "census_income_median_300m": 1982.856,
        "census_share_children_300m": 0.1117,
        "census_share_elderly_300m": 0.1525,
        "census_crowding_300m": null,
        "vulnerability_score_300m": 3.39,
        "social_data_coverage_pct": 100.0,
        "vulnerability_data_quality": "censo_2022",
        "flood_zone_level": "Baixa",
        "flood_zone_process": "Inundação",
        "flood_zone_distance_m": 543.5,
        "flood_zone_in_buffer": null,
        "flood_point_nearest_m": 18274.0,
        "flood_point_nearest_name": "Rua Tirso Alves Corrêa — Parque Tropical",
        "flood_point_nearest_phenomenon": "Solapamento de margens fluvial",
        "climate_data_quality": "sem_intersecao_urbverde_fallback",
        "heat_component": 0.0,
        "vegetation_component": 0.5705,
        "social_component": 0.5758,
        "heat_component_0_100": 0.0,
        "vegetation_component_0_100": 57.1,
        "social_component_0_100": 57.6,
        "iecs_score": 31.5,
        "risk_level": "Baixo / Confortável",
        "ranking": 48.0,
        "vulnerability_source": "IBGE Censo 2022 — índice social-sanitário composto do projeto"
      }
    },
    {
      "type": "Feature",
      "geometry": {
        "type": "Point",
        "coordinates": [
          -48.1469706,
          -21.83278
        ]
      },
      "properties": {
        "id": "SUS-005",
        "name": "CMS Cecap",
        "type": "UBS / CMS (Unidade Básica)",
        "lat": -21.83278,
        "lon": -48.1469706,
        "address": "",
        "suburb": "Araraquara",
        "cnes": null,
        "network": "Rede Pública SUS / Filantrópico",
        "surface_temp_300m": 31.4663,
        "ndvi_300m": 0.4945,
        "climate_data_coverage_pct": 100.0,
        "census_population_300m": 1448.2496,
        "census_income_median_300m": 2105.0608,
        "census_share_children_300m": 0.1064,
        "census_share_elderly_300m": 0.2781,
        "census_crowding_300m": null,
        "vulnerability_score_300m": 3.58,
        "social_data_coverage_pct": 100.0,
        "vulnerability_data_quality": "censo_2022",
        "flood_zone_level": "Baixa",
        "flood_zone_process": "Inundação",
        "flood_zone_distance_m": 1505.5,
        "flood_zone_in_buffer": null,
        "flood_point_nearest_m": 2684.8,
        "flood_point_nearest_name": "Av. Eng. Camillo Dinucci / Av. Ermano Biancardi — Jardim Arco-Íris",
        "flood_point_nearest_phenomenon": "Alagamento",
        "climate_data_quality": "urbverde_2024",
        "heat_component": 0.0822,
        "vegetation_component": 0.0,
        "social_component": 0.8636,
        "heat_component_0_100": 8.2,
        "vegetation_component_0_100": 0.0,
        "social_component_0_100": 86.4,
        "iecs_score": 29.6,
        "risk_level": "Baixo / Confortável",
        "ranking": 49.0,
        "vulnerability_source": "IBGE Censo 2022 — índice social-sanitário composto do projeto"
      }
    },
    {
      "type": "Feature",
      "geometry": {
        "type": "Point",
        "coordinates": [
          -48.13438,
          -21.827171
        ]
      },
      "properties": {
        "id": "SUS-046",
        "name": "USF Jardim Victório De Santi — Nair Damásio Claudino",
        "type": "USF (Saúde da Família)",
        "lat": -21.827171,
        "lon": -48.13438,
        "address": null,
        "suburb": "Jardim Victório De Santi II",
        "cnes": null,
        "network": null,
        "surface_temp_300m": 31.6563,
        "ndvi_300m": 0.483,
        "climate_data_coverage_pct": 100.0,
        "census_population_300m": 1016.6065,
        "census_income_median_300m": 1876.9312,
        "census_share_children_300m": 0.1519,
        "census_share_elderly_300m": 0.0965,
        "census_crowding_300m": null,
        "vulnerability_score_300m": 3.47,
        "social_data_coverage_pct": 100.0,
        "vulnerability_data_quality": "censo_2022",
        "flood_zone_level": "Baixa",
        "flood_zone_process": "Inundação",
        "flood_zone_distance_m": 1830.6,
        "flood_zone_in_buffer": null,
        "flood_point_nearest_m": 2779.2,
        "flood_point_nearest_name": "Av. Eng. Camillo Dinucci / Av. Ermano Biancardi — Jardim Arco-Íris",
        "flood_point_nearest_phenomenon": "Alagamento",
        "climate_data_quality": "urbverde_2024",
        "heat_component": 0.1157,
        "vegetation_component": 0.0452,
        "social_component": 0.697,
        "heat_component_0_100": 11.6,
        "vegetation_component_0_100": 4.5,
        "social_component_0_100": 69.7,
        "iecs_score": 27.2,
        "risk_level": "Baixo / Confortável",
        "ranking": 50.0,
        "vulnerability_source": "IBGE Censo 2022 — índice social-sanitário composto do projeto"
      }
    },
    {
      "type": "Feature",
      "geometry": {
        "type": "Point",
        "coordinates": [
          -48.142236,
          -21.830978
        ]
      },
      "properties": {
        "id": "SUS-044",
        "name": "CMS Jardim Iguatemi — Enf.ª Kimiko Yuta",
        "type": "UBS / CMS (Unidade Básica)",
        "lat": -21.830978,
        "lon": -48.142236,
        "address": null,
        "suburb": "Jardim Iguatemi",
        "cnes": null,
        "network": null,
        "surface_temp_300m": 31.6,
        "ndvi_300m": 0.49,
        "climate_data_coverage_pct": 100.0,
        "census_population_300m": 1286.114,
        "census_income_median_300m": 2159.457,
        "census_share_children_300m": 0.132,
        "census_share_elderly_300m": 0.1647,
        "census_crowding_300m": null,
        "vulnerability_score_300m": 3.47,
        "social_data_coverage_pct": 100.0,
        "vulnerability_data_quality": "censo_2022",
        "flood_zone_level": "Baixa",
        "flood_zone_process": "Inundação",
        "flood_zone_distance_m": 1823.7,
        "flood_zone_in_buffer": null,
        "flood_point_nearest_m": 2660.0,
        "flood_point_nearest_name": "Av. Eng. Camillo Dinucci / Av. Ermano Biancardi — Jardim Arco-Íris",
        "flood_point_nearest_phenomenon": "Alagamento",
        "climate_data_quality": "urbverde_2024",
        "heat_component": 0.1057,
        "vegetation_component": 0.0176,
        "social_component": 0.697,
        "heat_component_0_100": 10.6,
        "vegetation_component_0_100": 1.8,
        "social_component_0_100": 69.7,
        "iecs_score": 26.1,
        "risk_level": "Baixo / Confortável",
        "ranking": 51.0,
        "vulnerability_source": "IBGE Censo 2022 — índice social-sanitário composto do projeto"
      }
    },
    {
      "type": "Feature",
      "geometry": {
        "type": "Point",
        "coordinates": [
          -48.1978366,
          -21.8013107
        ]
      },
      "properties": {
        "id": "SUS-036",
        "name": "Centro de Referência do Idoso",
        "type": "Centro de Referência e Especialidades",
        "lat": -21.8013107,
        "lon": -48.1978366,
        "address": "",
        "suburb": "Araraquara",
        "cnes": null,
        "network": "Rede Pública SUS / Filantrópico",
        "surface_temp_300m": 32.3951,
        "ndvi_300m": 0.4456,
        "climate_data_coverage_pct": 100.0,
        "census_population_300m": 1029.414,
        "census_income_median_300m": 3150.7947,
        "census_share_children_300m": 0.1036,
        "census_share_elderly_300m": 0.0497,
        "census_crowding_300m": null,
        "vulnerability_score_300m": 3.01,
        "social_data_coverage_pct": 100.0,
        "vulnerability_data_quality": "censo_2022",
        "flood_zone_level": "Média",
        "flood_zone_process": "Inundação",
        "flood_zone_distance_m": 449.4,
        "flood_zone_in_buffer": null,
        "flood_point_nearest_m": 1830.5,
        "flood_point_nearest_name": "Rua Imaculada Conceição — Jardim Tamoio",
        "flood_point_nearest_phenomenon": "Inundação",
        "climate_data_quality": "urbverde_2024",
        "heat_component": 0.2458,
        "vegetation_component": 0.1929,
        "social_component": 0.0,
        "heat_component_0_100": 24.6,
        "vegetation_component_0_100": 19.3,
        "social_component_0_100": 0.0,
        "iecs_score": 15.9,
        "risk_level": "Baixo / Confortável",
        "ranking": 52.0,
        "vulnerability_source": "IBGE Censo 2022 — índice social-sanitário composto do projeto"
      }
    }
  ]
}
